<?xml version="1.0" encoding="UTF-8"?>
<kml xmlns="http://www.opengis.net/kml/2.2" xmlns:gx="http://www.google.com/kml/ext/2.2" xmlns:kml="http://www.opengis.net/kml/2.2" xmlns:atom="http://www.w3.org/2005/Atom">
<Document id="14I4z-aVnfhmdap9gp5E266nnl2I3SL5P">
	<name>Murales Tamsa</name>
	<gx:CascadingStyle kml:id="__managed_style_0D6ACBF75141F92D1D0C_highlight">
		<Style>
			<IconStyle>
				<scale>1.2</scale>
				<Icon>
					<href>https://earth.google.com/earth/document/icon?color=f57c00&amp;id=2341&amp;scale=4</href>
				</Icon>
				<hotSpot x="64" y="128" xunits="pixels" yunits="insetPixels"/>
			</IconStyle>
			<LabelStyle>
			</LabelStyle>
			<LineStyle>
				<color>ff2dc0fb</color>
				<width>6</width>
			</LineStyle>
			<PolyStyle>
				<color>40ffffff</color>
			</PolyStyle>
			<BalloonStyle>
			</BalloonStyle>
		</Style>
	</gx:CascadingStyle>
	<gx:CascadingStyle kml:id="__managed_style_0490AC1B1F41F9290FA1_highlight">
		<Style>
			<IconStyle>
				<scale>1.2</scale>
				<Icon>
					<href>https://earth.google.com/earth/document/icon?color=1976d2&amp;id=2176&amp;scale=4</href>
				</Icon>
				<hotSpot x="64" y="128" xunits="pixels" yunits="insetPixels"/>
			</IconStyle>
			<LabelStyle>
			</LabelStyle>
			<LineStyle>
				<color>ff2dc0fb</color>
				<width>6</width>
			</LineStyle>
			<PolyStyle>
				<color>40ffffff</color>
			</PolyStyle>
			<BalloonStyle>
			</BalloonStyle>
		</Style>
	</gx:CascadingStyle>
	<gx:CascadingStyle kml:id="__managed_style_0490AC1B1F41F9290FA1_normal">
		<Style>
			<IconStyle>
				<Icon>
					<href>https://earth.google.com/earth/document/icon?color=1976d2&amp;id=2176&amp;scale=4</href>
				</Icon>
				<hotSpot x="64" y="128" xunits="pixels" yunits="insetPixels"/>
			</IconStyle>
			<LabelStyle>
			</LabelStyle>
			<LineStyle>
				<color>ff2dc0fb</color>
				<width>4</width>
			</LineStyle>
			<PolyStyle>
				<color>40ffffff</color>
			</PolyStyle>
			<BalloonStyle>
			</BalloonStyle>
		</Style>
	</gx:CascadingStyle>
	<StyleMap id="__managed_style_0490AC1B1F41F9290FA1">
		<Pair>
			<key>normal</key>
			<styleUrl>#__managed_style_0490AC1B1F41F9290FA1_normal</styleUrl>
		</Pair>
		<Pair>
			<key>highlight</key>
			<styleUrl>#__managed_style_0490AC1B1F41F9290FA1_highlight</styleUrl>
		</Pair>
	</StyleMap>
	<gx:CascadingStyle kml:id="__managed_style_0C5B08247741F9280827_highlight">
		<Style>
			<IconStyle>
				<scale>1.2</scale>
				<Icon>
					<href>https://earth.google.com/earth/document/icon?color=1976d2&amp;id=2176&amp;scale=4</href>
				</Icon>
				<hotSpot x="64" y="128" xunits="pixels" yunits="insetPixels"/>
			</IconStyle>
			<LabelStyle>
			</LabelStyle>
			<LineStyle>
				<color>ff2dc0fb</color>
				<width>6</width>
			</LineStyle>
			<PolyStyle>
				<color>40ffffff</color>
			</PolyStyle>
			<BalloonStyle>
			</BalloonStyle>
		</Style>
	</gx:CascadingStyle>
	<StyleMap id="__managed_style_0C5B08247741F9280827">
		<Pair>
			<key>normal</key>
			<styleUrl>#__managed_style_0C5B08247741F9280827_normal</styleUrl>
		</Pair>
		<Pair>
			<key>highlight</key>
			<styleUrl>#__managed_style_0C5B08247741F9280827_highlight</styleUrl>
		</Pair>
	</StyleMap>
	<gx:CascadingStyle kml:id="__managed_style_03E90FFAA441F91EFF70_highlight">
		<Style>
			<IconStyle>
				<scale>1.2</scale>
				<Icon>
					<href>https://earth.google.com/earth/document/icon?color=ffee58&amp;id=2000&amp;scale=4</href>
				</Icon>
				<hotSpot x="64" y="128" xunits="pixels" yunits="insetPixels"/>
			</IconStyle>
			<LabelStyle>
			</LabelStyle>
			<LineStyle>
				<color>ff2dc0fb</color>
				<width>6</width>
			</LineStyle>
			<PolyStyle>
				<color>40ffffff</color>
			</PolyStyle>
			<BalloonStyle>
			</BalloonStyle>
		</Style>
	</gx:CascadingStyle>
	<StyleMap id="__managed_style_19E1FC1CBC41F91EFF70">
		<Pair>
			<key>normal</key>
			<styleUrl>#__managed_style_19E1FC1CBC41F91EFF70_normal</styleUrl>
		</Pair>
		<Pair>
			<key>highlight</key>
			<styleUrl>#__managed_style_19E1FC1CBC41F91EFF70_highlight</styleUrl>
		</Pair>
	</StyleMap>
	<StyleMap id="__managed_style_0D6ACBF75141F92D1D0C">
		<Pair>
			<key>normal</key>
			<styleUrl>#__managed_style_0D6ACBF75141F92D1D0C_normal</styleUrl>
		</Pair>
		<Pair>
			<key>highlight</key>
			<styleUrl>#__managed_style_0D6ACBF75141F92D1D0C_highlight</styleUrl>
		</Pair>
	</StyleMap>
	<gx:CascadingStyle kml:id="__managed_style_0A4673225C41F91EFF6F_highlight">
		<Style>
			<IconStyle>
				<scale>1.2</scale>
				<Icon>
					<href>https://earth.google.com/earth/document/icon?color=ffee58&amp;id=2000&amp;scale=4</href>
				</Icon>
				<hotSpot x="64" y="128" xunits="pixels" yunits="insetPixels"/>
			</IconStyle>
			<LabelStyle>
			</LabelStyle>
			<LineStyle>
				<color>ff2dc0fb</color>
				<width>6</width>
			</LineStyle>
			<PolyStyle>
				<color>40ffffff</color>
			</PolyStyle>
			<BalloonStyle>
			</BalloonStyle>
		</Style>
	</gx:CascadingStyle>
	<gx:CascadingStyle kml:id="__managed_style_03E90FFAA441F91EFF70_normal">
		<Style>
			<IconStyle>
				<Icon>
					<href>https://earth.google.com/earth/document/icon?color=ffee58&amp;id=2000&amp;scale=4</href>
				</Icon>
				<hotSpot x="64" y="128" xunits="pixels" yunits="insetPixels"/>
			</IconStyle>
			<LabelStyle>
			</LabelStyle>
			<LineStyle>
				<color>ff2dc0fb</color>
				<width>4</width>
			</LineStyle>
			<PolyStyle>
				<color>40ffffff</color>
			</PolyStyle>
			<BalloonStyle>
			</BalloonStyle>
		</Style>
	</gx:CascadingStyle>
	<gx:CascadingStyle kml:id="__managed_style_0A4673225C41F91EFF6F_normal">
		<Style>
			<IconStyle>
				<Icon>
					<href>https://earth.google.com/earth/document/icon?color=ffee58&amp;id=2000&amp;scale=4</href>
				</Icon>
				<hotSpot x="64" y="128" xunits="pixels" yunits="insetPixels"/>
			</IconStyle>
			<LabelStyle>
			</LabelStyle>
			<LineStyle>
				<color>ff2dc0fb</color>
				<width>4</width>
			</LineStyle>
			<PolyStyle>
				<color>40ffffff</color>
			</PolyStyle>
			<BalloonStyle>
			</BalloonStyle>
		</Style>
	</gx:CascadingStyle>
	<gx:CascadingStyle kml:id="__managed_style_19E1FC1CBC41F91EFF70_normal">
		<Style>
			<IconStyle>
				<Icon>
					<href>https://earth.google.com/earth/document/icon?color=388e3c&amp;id=2370&amp;scale=4</href>
				</Icon>
				<hotSpot x="64" y="128" xunits="pixels" yunits="insetPixels"/>
			</IconStyle>
			<LabelStyle>
			</LabelStyle>
			<LineStyle>
				<color>ff2dc0fb</color>
				<width>4</width>
			</LineStyle>
			<PolyStyle>
				<color>40ffffff</color>
			</PolyStyle>
			<BalloonStyle>
			</BalloonStyle>
		</Style>
	</gx:CascadingStyle>
	<StyleMap id="__managed_style_0A4673225C41F91EFF6F">
		<Pair>
			<key>normal</key>
			<styleUrl>#__managed_style_0A4673225C41F91EFF6F_normal</styleUrl>
		</Pair>
		<Pair>
			<key>highlight</key>
			<styleUrl>#__managed_style_0A4673225C41F91EFF6F_highlight</styleUrl>
		</Pair>
	</StyleMap>
	<gx:CascadingStyle kml:id="__managed_style_0D6ACBF75141F92D1D0C_normal">
		<Style>
			<IconStyle>
				<Icon>
					<href>https://earth.google.com/earth/document/icon?color=f57c00&amp;id=2341&amp;scale=4</href>
				</Icon>
				<hotSpot x="64" y="128" xunits="pixels" yunits="insetPixels"/>
			</IconStyle>
			<LabelStyle>
			</LabelStyle>
			<LineStyle>
				<color>ff2dc0fb</color>
				<width>4</width>
			</LineStyle>
			<PolyStyle>
				<color>40ffffff</color>
			</PolyStyle>
			<BalloonStyle>
			</BalloonStyle>
		</Style>
	</gx:CascadingStyle>
	<gx:CascadingStyle kml:id="__managed_style_19E1FC1CBC41F91EFF70_highlight">
		<Style>
			<IconStyle>
				<scale>1.2</scale>
				<Icon>
					<href>https://earth.google.com/earth/document/icon?color=388e3c&amp;id=2370&amp;scale=4</href>
				</Icon>
				<hotSpot x="64" y="128" xunits="pixels" yunits="insetPixels"/>
			</IconStyle>
			<LabelStyle>
			</LabelStyle>
			<LineStyle>
				<color>ff2dc0fb</color>
				<width>6</width>
			</LineStyle>
			<PolyStyle>
				<color>40ffffff</color>
			</PolyStyle>
			<BalloonStyle>
			</BalloonStyle>
		</Style>
	</gx:CascadingStyle>
	<gx:CascadingStyle kml:id="__managed_style_0C5B08247741F9280827_normal">
		<Style>
			<IconStyle>
				<Icon>
					<href>https://earth.google.com/earth/document/icon?color=1976d2&amp;id=2176&amp;scale=4</href>
				</Icon>
				<hotSpot x="64" y="128" xunits="pixels" yunits="insetPixels"/>
			</IconStyle>
			<LabelStyle>
			</LabelStyle>
			<LineStyle>
				<color>ff2dc0fb</color>
				<width>4</width>
			</LineStyle>
			<PolyStyle>
				<color>40ffffff</color>
			</PolyStyle>
			<BalloonStyle>
			</BalloonStyle>
		</Style>
	</gx:CascadingStyle>
	<StyleMap id="__managed_style_03E90FFAA441F91EFF70">
		<Pair>
			<key>normal</key>
			<styleUrl>#__managed_style_03E90FFAA441F91EFF70_normal</styleUrl>
		</Pair>
		<Pair>
			<key>highlight</key>
			<styleUrl>#__managed_style_03E90FFAA441F91EFF70_highlight</styleUrl>
		</Pair>
	</StyleMap>
	<Placemark id="03A8052DBF41BE98B109">
		<name>1-León</name>
		<LookAt>
			<longitude>-72.92341519146173</longitude>
			<latitude>5.697845710066812</latitude>
			<altitude>2518.054921775058</altitude>
			<heading>0</heading>
			<tilt>0</tilt>
			<gx:fovy>35</gx:fovy>
			<range>46.50699461214572</range>
			<altitudeMode>absolute</altitudeMode>
		</LookAt>
		<styleUrl>#__managed_style_03E90FFAA441F91EFF70</styleUrl>
		<Point>
			<coordinates>-72.9235071333278,5.697861329896881,2517.720476679447</coordinates>
		</Point>
	</Placemark>
	<Placemark id="07F4CA0CCD41BE997984">
		<name>2-Lucas</name>
		<LookAt>
			<longitude>-72.9227159429802</longitude>
			<latitude>5.697071541342907</latitude>
			<altitude>2520.836189160855</altitude>
			<heading>0</heading>
			<tilt>0</tilt>
			<gx:fovy>35</gx:fovy>
			<range>506.6307077590319</range>
			<altitudeMode>absolute</altitudeMode>
		</LookAt>
		<styleUrl>#__managed_style_0A4673225C41F91EFF6F</styleUrl>
		<Point>
			<coordinates>-72.92257052179384,5.697273522398885,2521.201861053845</coordinates>
		</Point>
	</Placemark>
	<Placemark id="0FFD4DB26941BE99A89E">
		<name>3-Kynsha</name>
		<LookAt>
			<longitude>-72.9227159429802</longitude>
			<latitude>5.697071541342907</latitude>
			<altitude>2520.836189160855</altitude>
			<heading>0</heading>
			<tilt>0</tilt>
			<gx:fovy>35</gx:fovy>
			<range>506.6307077590319</range>
			<altitudeMode>absolute</altitudeMode>
		</LookAt>
		<styleUrl>#__managed_style_0A4673225C41F91EFF6F</styleUrl>
		<Point>
			<coordinates>-72.92255238785522,5.697234288450509,2521.337329250054</coordinates>
		</Point>
	</Placemark>
	<Placemark id="08E41FEDF641BE99EC81">
		<name>4-Howie</name>
		<LookAt>
			<longitude>-72.9227159429802</longitude>
			<latitude>5.697071541342907</latitude>
			<altitude>2520.836189160855</altitude>
			<heading>0</heading>
			<tilt>0</tilt>
			<gx:fovy>35</gx:fovy>
			<range>506.6307077590319</range>
			<altitudeMode>absolute</altitudeMode>
		</LookAt>
		<styleUrl>#__managed_style_0A4673225C41F91EFF6F</styleUrl>
		<Point>
			<coordinates>-72.92254939191832,5.69718905778782,2521.43684142836</coordinates>
		</Point>
	</Placemark>
	<Placemark id="0BC5C7BE7041BE9DD084">
		<name>5-Rito</name>
		<LookAt>
			<longitude>-72.92237092883283</longitude>
			<latitude>5.699091161695336</latitude>
			<altitude>2515.73412669821</altitude>
			<heading>317.322808905221</heading>
			<tilt>0</tilt>
			<gx:fovy>35</gx:fovy>
			<range>103.686520457486</range>
			<altitudeMode>absolute</altitudeMode>
		</LookAt>
		<styleUrl>#__managed_style_0A4673225C41F91EFF6F</styleUrl>
		<Point>
			<coordinates>-72.92241732576058,5.699097413745464,2515.497957639915</coordinates>
		</Point>
	</Placemark>
	<Placemark id="064B2CA92C41BE9EBA13">
		<name>6-Chamox - Wichan</name>
		<LookAt>
			<longitude>-72.92240584655133</longitude>
			<latitude>5.702720927622836</latitude>
			<altitude>2510.108033030283</altitude>
			<heading>48.67004213488369</heading>
			<tilt>0</tilt>
			<gx:fovy>35</gx:fovy>
			<range>84.71542939992105</range>
			<altitudeMode>absolute</altitudeMode>
		</LookAt>
		<styleUrl>#__managed_style_0A4673225C41F91EFF6F</styleUrl>
		<Point>
			<coordinates>-72.92243745278914,5.702810159151669,2510.108042838041</coordinates>
		</Point>
	</Placemark>
	<Placemark id="0DF78BF19141BEA01674">
		<name>7-Guache</name>
		<LookAt>
			<longitude>-72.92168537488257</longitude>
			<latitude>5.705939551439574</latitude>
			<altitude>2509.662294299965</altitude>
			<heading>150.4104942110768</heading>
			<tilt>0</tilt>
			<gx:fovy>35.00009724520108</gx:fovy>
			<range>99.6279605663949</range>
			<altitudeMode>absolute</altitudeMode>
		</LookAt>
		<styleUrl>#__managed_style_0A4673225C41F91EFF6F</styleUrl>
		<Point>
			<coordinates>-72.92161490979828,5.706080660988191,2510.01189377269</coordinates>
		</Point>
	</Placemark>
	<Placemark id="03D64941C441BEA1A010">
		<name>8-Grone - Juancho Raíces</name>
		<LookAt>
			<longitude>-72.92046102860061</longitude>
			<latitude>5.705669957062391</latitude>
			<altitude>2508.394830651498</altitude>
			<heading>150.4105977432167</heading>
			<tilt>0</tilt>
			<gx:fovy>35.00009724520108</gx:fovy>
			<range>584.3009291975613</range>
			<altitudeMode>absolute</altitudeMode>
		</LookAt>
		<styleUrl>#__managed_style_0A4673225C41F91EFF6F</styleUrl>
		<Point>
			<coordinates>-72.91959823361842,5.705982776962855,2512.95401942737</coordinates>
		</Point>
	</Placemark>
	<Placemark id="0733EE67FB41BEA1F2B3">
		<name>9-Juancho Raíces</name>
		<LookAt>
			<longitude>-72.91983840551519</longitude>
			<latitude>5.705929857414079</latitude>
			<altitude>2511.400107181132</altitude>
			<heading>150.4106596446397</heading>
			<tilt>0</tilt>
			<gx:fovy>35.00009724520108</gx:fovy>
			<range>581.2956753093749</range>
			<altitudeMode>absolute</altitudeMode>
		</LookAt>
		<styleUrl>#__managed_style_0A4673225C41F91EFF6F</styleUrl>
		<Point>
			<coordinates>-72.91958723519892,5.706020164644584,2512.918223513714</coordinates>
		</Point>
	</Placemark>
	<Placemark id="0FC14C3B4241BEA30BE6">
		<name>10-Godie</name>
		<LookAt>
			<longitude>-72.9189210648245</longitude>
			<latitude>5.70751771251178</latitude>
			<altitude>2526.537511072046</altitude>
			<heading>150.410683212519</heading>
			<tilt>0</tilt>
			<gx:fovy>35.00009724520108</gx:fovy>
			<range>245.8217115201114</range>
			<altitudeMode>absolute</altitudeMode>
		</LookAt>
		<styleUrl>#__managed_style_0A4673225C41F91EFF6F</styleUrl>
		<Point>
			<coordinates>-72.91865682051005,5.707660368884122,2529.717375357223</coordinates>
		</Point>
	</Placemark>
	<Placemark id="0AB4AA0B7E41BEA34190">
		<name>11-Triana</name>
		<LookAt>
			<longitude>-72.91881328506928</longitude>
			<latitude>5.707603791130127</latitude>
			<altitude>2528.0454145132</altitude>
			<heading>150.4106939307269</heading>
			<tilt>0</tilt>
			<gx:fovy>35.00009724520108</gx:fovy>
			<range>244.3137769057648</range>
			<altitudeMode>absolute</altitudeMode>
		</LookAt>
		<styleUrl>#__managed_style_0A4673225C41F91EFF6F</styleUrl>
		<Point>
			<coordinates>-72.91862459980044,5.707658952680863,2529.995199986745</coordinates>
		</Point>
	</Placemark>
	<Placemark id="0E3166D79341BEA3AC6C">
		<name>12-Jaime Sierra</name>
		<LookAt>
			<longitude>-72.91881328506928</longitude>
			<latitude>5.707603791130127</latitude>
			<altitude>2528.0454145132</altitude>
			<heading>150.4106939307269</heading>
			<tilt>0</tilt>
			<gx:fovy>35.00009724520108</gx:fovy>
			<range>244.3137769057648</range>
			<altitudeMode>absolute</altitudeMode>
		</LookAt>
		<styleUrl>#__managed_style_0A4673225C41F91EFF6F</styleUrl>
		<Point>
			<coordinates>-72.91912832822416,5.707601722798608,2525.313857497242</coordinates>
		</Point>
	</Placemark>
	<Placemark id="03DF281DDF41BEA41FE1">
		<name>13-Tierrara</name>
		<LookAt>
			<longitude>-72.91925699126773</longitude>
			<latitude>5.708507297305227</latitude>
			<altitude>2528.459150265344</altitude>
			<heading>150.410674750824</heading>
			<tilt>0</tilt>
			<gx:fovy>35.00009724520108</gx:fovy>
			<range>145.1922700629802</range>
			<altitudeMode>absolute</altitudeMode>
		</LookAt>
		<styleUrl>#__managed_style_0A4673225C41F91EFF6F</styleUrl>
		<Point>
			<coordinates>-72.91932818270121,5.708614506104076,2528.176636152773</coordinates>
		</Point>
	</Placemark>
	<Placemark id="043F2F77F741BEA44369">
		<name>14-Axa</name>
		<LookAt>
			<longitude>-72.91925699126773</longitude>
			<latitude>5.708507297305227</latitude>
			<altitude>2528.459150265344</altitude>
			<heading>150.410674750824</heading>
			<tilt>0</tilt>
			<gx:fovy>35.00009724520108</gx:fovy>
			<range>145.1922700629802</range>
			<altitudeMode>absolute</altitudeMode>
		</LookAt>
		<styleUrl>#__managed_style_0A4673225C41F91EFF6F</styleUrl>
		<Point>
			<coordinates>-72.91929614395431,5.708644147387095,2528.555586074266</coordinates>
		</Point>
	</Placemark>
	<Placemark id="0F60AB5DFE41BEABDEB0">
		<name>15-Yela</name>
		<LookAt>
			<longitude>-72.91967973403769</longitude>
			<latitude>5.70879157572787</latitude>
			<altitude>2525.335151029669</altitude>
			<heading>281.0412888219204</heading>
			<tilt>0</tilt>
			<gx:fovy>35</gx:fovy>
			<range>204.5956460060916</range>
			<altitudeMode>absolute</altitudeMode>
		</LookAt>
		<styleUrl>#__managed_style_0A4673225C41F91EFF6F</styleUrl>
		<Point>
			<coordinates>-72.9197921116196,5.70892382144053,2525.458988126796</coordinates>
		</Point>
	</Placemark>
	<Placemark id="081DAF15FC41BEAC3C51">
		<name>16-Chucho-Negro José</name>
		<LookAt>
			<longitude>-72.92000434557131</longitude>
			<latitude>5.709596149538344</latitude>
			<altitude>2528.063825253901</altitude>
			<heading>281.041257377099</heading>
			<tilt>0</tilt>
			<gx:fovy>35</gx:fovy>
			<range>208.8621784962379</range>
			<altitudeMode>absolute</altitudeMode>
		</LookAt>
		<styleUrl>#__managed_style_0A4673225C41F91EFF6F</styleUrl>
		<Point>
			<coordinates>-72.91999363060596,5.709754138805599,2529.179549597112</coordinates>
		</Point>
	</Placemark>
	<Placemark id="0A8346AEC441BEADA908">
		<name>17-Wosnan</name>
		<LookAt>
			<longitude>-72.92044853445459</longitude>
			<latitude>5.708324511880491</latitude>
			<altitude>2520.517964998127</altitude>
			<heading>281.0412282265885</heading>
			<tilt>0</tilt>
			<gx:fovy>35</gx:fovy>
			<range>465.5915695838485</range>
			<altitudeMode>absolute</altitudeMode>
		</LookAt>
		<styleUrl>#__managed_style_0A4673225C41F91EFF6F</styleUrl>
		<Point>
			<coordinates>-72.92039193034626,5.709102232648175,2523.47399478913</coordinates>
		</Point>
	</Placemark>
	<Placemark id="0284F5C3A041BEADF041">
		<name>18-Negra</name>
		<LookAt>
			<longitude>-72.92044853445459</longitude>
			<latitude>5.708324511880491</latitude>
			<altitude>2520.517964998127</altitude>
			<heading>281.0412282265885</heading>
			<tilt>0</tilt>
			<gx:fovy>35</gx:fovy>
			<range>465.5915695838485</range>
			<altitudeMode>absolute</altitudeMode>
		</LookAt>
		<styleUrl>#__managed_style_0A4673225C41F91EFF6F</styleUrl>
		<Point>
			<coordinates>-72.92069762544395,5.708055699065123,2519.331787944935</coordinates>
		</Point>
	</Placemark>
	<Placemark id="0D1D4673FF41BEAE675E">
		<name>19-Mr Garek</name>
		<LookAt>
			<longitude>-72.9212177407118</longitude>
			<latitude>5.708061523231232</latitude>
			<altitude>2518.260676378011</altitude>
			<heading>281.0411620401928</heading>
			<tilt>0</tilt>
			<gx:fovy>35</gx:fovy>
			<range>277.9893454091508</range>
			<altitudeMode>absolute</altitudeMode>
		</LookAt>
		<styleUrl>#__managed_style_0A4673225C41F91EFF6F</styleUrl>
		<Point>
			<coordinates>-72.92094905057503,5.707955449526698,2518.593444802633</coordinates>
		</Point>
	</Placemark>
	<Placemark id="03A1D365A741BEAEAB34">
		<name>20-Margo</name>
		<LookAt>
			<longitude>-72.9212177407118</longitude>
			<latitude>5.708061523231232</latitude>
			<altitude>2518.260676378011</altitude>
			<heading>281.0411620401928</heading>
			<tilt>0</tilt>
			<gx:fovy>35</gx:fovy>
			<range>277.9893454091508</range>
			<altitudeMode>absolute</altitudeMode>
		</LookAt>
		<styleUrl>#__managed_style_0A4673225C41F91EFF6F</styleUrl>
		<Point>
			<coordinates>-72.92110944062435,5.708208683600439,2519.031563856137</coordinates>
		</Point>
	</Placemark>
	<Placemark id="09365D67BC41BEAFD3B8">
		<name>21-Chichimut</name>
		<LookAt>
			<longitude>-72.9212177407118</longitude>
			<latitude>5.708061523231232</latitude>
			<altitude>2518.260676378011</altitude>
			<heading>281.0411620401928</heading>
			<tilt>0</tilt>
			<gx:fovy>35</gx:fovy>
			<range>277.9893454091508</range>
			<altitudeMode>absolute</altitudeMode>
		</LookAt>
		<styleUrl>#__managed_style_0A4673225C41F91EFF6F</styleUrl>
		<Point>
			<coordinates>-72.9214532972874,5.708271073776556,2517.88777901413</coordinates>
		</Point>
	</Placemark>
	<Placemark id="05E97F4C2941BEB00B41">
		<name>22-Caucho-Sebas Tiempo</name>
		<LookAt>
			<longitude>-72.9212177407118</longitude>
			<latitude>5.708061523231232</latitude>
			<altitude>2518.260676378011</altitude>
			<heading>281.0411620401928</heading>
			<tilt>0</tilt>
			<gx:fovy>35</gx:fovy>
			<range>277.9893454091508</range>
			<altitudeMode>absolute</altitudeMode>
		</LookAt>
		<styleUrl>#__managed_style_0A4673225C41F91EFF6F</styleUrl>
		<Point>
			<coordinates>-72.92144904779211,5.708138562095241,2517.530898681369</coordinates>
		</Point>
	</Placemark>
	<Placemark id="097AF50DA741BEB06113">
		<name>23-Maspaz</name>
		<LookAt>
			<longitude>-72.9212177407118</longitude>
			<latitude>5.708061523231232</latitude>
			<altitude>2518.260676378011</altitude>
			<heading>281.0411620401928</heading>
			<tilt>0</tilt>
			<gx:fovy>35</gx:fovy>
			<range>277.9893454091508</range>
			<altitudeMode>absolute</altitudeMode>
		</LookAt>
		<styleUrl>#__managed_style_0A4673225C41F91EFF6F</styleUrl>
		<Point>
			<coordinates>-72.92161789879792,5.708081534990233,2516.615863566178</coordinates>
		</Point>
	</Placemark>
	<Placemark id="0E2F7007AB41BEB09EEB">
		<name>Humedal Cuchivira</name>
		<LookAt>
			<longitude>-72.91970664781869</longitude>
			<latitude>5.704757322727497</latitude>
			<altitude>2516.832034963735</altitude>
			<heading>281.0412308012716</heading>
			<tilt>0</tilt>
			<gx:fovy>35</gx:fovy>
			<range>1536.092894387984</range>
			<altitudeMode>absolute</altitudeMode>
		</LookAt>
		<styleUrl>#__managed_style_19E1FC1CBC41F91EFF70</styleUrl>
		<Point>
			<coordinates>-72.91962923337896,5.704770233755731,2517.737004243029</coordinates>
		</Point>
	</Placemark>
	<Placemark id="034D79451941F927AC07">
		<name>CASA QUINCHA</name>
		<LookAt>
			<longitude>-72.92145710381061</longitude>
			<latitude>5.708247436382036</latitude>
			<altitude>2517.792777088579</altitude>
			<heading>281.0413397812577</heading>
			<tilt>0</tilt>
			<gx:fovy>35</gx:fovy>
			<range>94.82607768063644</range>
			<altitudeMode>absolute</altitudeMode>
		</LookAt>
		<styleUrl>#__managed_style_0C5B08247741F9280827</styleUrl>
		<Point>
			<coordinates>-72.92142650697143,5.708284487178858,2518.03760753116</coordinates>
		</Point>
	</Placemark>
	<Placemark id="014153C44C41F928D550">
		<name>LA HORQUETA</name>
		<LookAt>
			<longitude>-72.92335542551885</longitude>
			<latitude>5.697844738822417</latitude>
			<altitude>2518.219564631581</altitude>
			<heading>359.9997640590557</heading>
			<tilt>0</tilt>
			<gx:fovy>35</gx:fovy>
			<range>93.08210239440996</range>
			<altitudeMode>absolute</altitudeMode>
		</LookAt>
		<styleUrl>#__managed_style_0490AC1B1F41F9290FA1</styleUrl>
		<Point>
			<coordinates>-72.92350809594237,5.6978305482033,2517.752651421401</coordinates>
		</Point>
	</Placemark>
	<Placemark id="0FE9C8948041F92C93F1">
		<name>TEMPLO DEL SOL</name>
		<LookAt>
			<longitude>-72.92353228264072</longitude>
			<latitude>5.709290446886319</latitude>
			<altitude>2513.673158150389</altitude>
			<heading>359.9997576999883</heading>
			<tilt>0</tilt>
			<gx:fovy>35</gx:fovy>
			<range>176.5013477277353</range>
			<altitudeMode>absolute</altitudeMode>
		</LookAt>
		<styleUrl>#__managed_style_0D6ACBF75141F92D1D0C</styleUrl>
		<Point>
			<coordinates>-72.92369249465929,5.709208625862683,2512.691435658077</coordinates>
		</Point>
	</Placemark>
</Document>
</kml>
